ANIK F3                 
1 31102U 07009A   16360.54304125  .00000006  00000-0  00000+0 0  9998
2 31102   0.0012  32.5007 0001673 260.9186 237.8437  1.00270986 35632
ASTRA 1L                
1 31306U 07016A   16360.67434501  .00000127  00000-0  00000+0 0  9992
2 31306   0.0394 346.2626 0004760 303.2214  67.0773  1.00272645 35344
GALAXY 17 (G-17)        
1 31307U 07016B   16360.31678400 -.00000168  00000-0  00000+0 0  9998
2 31307   0.0311  43.7830 0003148 239.9165 193.6120  1.00272575 35376
ZHONGXING-6B            
1 31800U 07031A   16360.97133828 -.00000354  00000-0  00000+0 0  9992
2 31800   0.0110   0.8740 0003476 257.6350 301.5965  1.00274661 34770
DIRECTV 10              
1 31862U 07032A   16360.02471932 -.00000097  00000-0  00000+0 0  9992
2 31862   0.0109 255.9857 0000194 258.2832 205.7344  1.00272454 34701
SPACEWAY 3              
1 32018U 07036A   16361.26794373 -.00000144  00000-0  00000+0 0  9997
2 32018   0.0272 139.7815 0000416 223.0071  93.9108  1.00272108 34432
BSAT-3A                 
1 32019U 07036B   16359.43533396 -.00000345  00000-0  00000+0 0  9993
2 32019   0.0714 241.8711 0004357   9.6265 108.4566  1.00274190 34359
INSAT-4CR               
1 32050U 07037A   16361.55277300 -.00000069  00000-0  00000+0 0  9998
2 32050   0.0445 273.9797 0009621   2.3475  92.1260  1.00272632 34165
OPTUS D2                
1 32252U 07044A   16360.85188167 -.00000176  00000-0  00000+0 0  9993
2 32252   0.0067  33.7812 0003716 244.8034 274.8917  1.00271078 33746
INTELSAT 11 (IS-11)     
1 32253U 07044B   16360.12396728 -.00000262  00000-0  00000+0 0  9994
2 32253   0.0108 359.8018 0002616 286.2526 169.6415  1.00269261 33821
STAR ONE C1             
1 32293U 07056A   16359.91975261 -.00000271  00000-0  00000+0 0  9991
2 32293   0.0169  77.1959 0002953 216.3475  66.4276  1.00271070 33401
SKYNET 5B               
1 32294U 07056B   16360.23968319  .00000148  00000-0  00000+0 0  9997
2 32294   0.0658   8.1447 0004019 264.1402 293.2467  1.00273345 33507
ASTRA 4A (SIRIUS 4)     
1 32299U 07057A   16361.08938361  .00000040  00000-0  00000+0 0  9992
2 32299   0.0144 355.8068 0002689 285.7144 210.4630  1.00271746 33265
HORIZONS-2              
1 32388U 07063B   16361.48529301 -.00000174  00000-0  00000+0 0  9991
2 32388   0.0165  42.8300 0002765 245.2733  66.8613  1.00272704 33190
THURAYA-3               
1 32404U 08001A   16360.47181411 -.00000294  00000-0  00000+0 0  9990
2 32404   4.1336 351.9732 0004610 279.9688  90.8301  1.00272123 32837
EXPRESS-AM33            
1 32478U 08003A   16361.03922253 -.00000273  00000-0  00000+0 0  9990
2 32478   0.0169 220.8700 0001547 207.8609 136.8449  1.00270787 32923
THOR 5                  
1 32487U 08006A   16361.11718464 -.00000001  00000-0  00000+0 0  9998
2 32487   0.0201 267.3345 0002395  17.5015 211.6357  1.00271715 32483
KIZUNA (WINDS)          
1 32500U 08007A   16360.33623196 -.00000252  00000-0  00000+0 0  9993
2 32500   0.4682  91.3628 0002240 194.9214  72.0349  1.00271662 32330
AMC-14                  
1 32708U 08011A   16360.99678218  .00000093  00000-0  00000+0 0  9997
2 32708  18.7991  65.4928 0032015 354.3379  51.8595  1.00270429 33404
DIRECTV 11              
1 32729U 08013A   16361.21944581 -.00000118  00000-0  00000+0 0  9996
2 32729   0.0221 181.9695 0000125   6.4284 246.5743  1.00271650 32245
ICO G1                  
1 32763U 08016A   16360.56185786 -.00000164  00000-0  00000+0 0  9999
2 32763   3.9093 352.9036 0003395 285.8979 285.1240  1.00272264 31766
VINASAT-1               
1 32767U 08018A   16360.37150116 -.00000322  00000-0  00000+0 0  9999
2 32767   0.0100  14.3483 0001553 278.3987  67.2391  1.00271716 31905
STAR ONE C2             
1 32768U 08018B   16360.93092019 -.00000258  00000-0  00000+0 0  9997
2 32768   0.0498 159.1043 0001416 134.3256  66.5581  1.00273949 31851
TIANLIAN 1-01           
1 32779U 08019A   16360.03831979 -.00000131  00000-0  10000-3 0  9992
2 32779   2.4480  76.8331 0038740 221.3837 249.4875  1.00267654 31761
AMOS-3                  
1 32794U 08022A   16361.18713250 -.00000027  00000-0  00000+0 0  9990
2 32794   0.0419 256.9195 0000856  33.4408 228.0812  1.00272224 31758
GALAXY 18 (G-18)        
1 32951U 08024A   16360.08027492  .00000031  00000-0  00000+0 0  9995
2 32951   0.0232  40.9618 0003015 232.8990  86.1048  1.00270064 31381
CHINASAT 9 (ZX 9)       
1 33051U 08028A   16361.03436973 -.00000240  00000-0  00000+0 0  9998
2 33051   0.0036  27.3215 0004477 256.6840 275.5272  1.00270788 31317
SKYNET 5C               
1 33055U 08030A   16361.25291196 -.00000132  00000-0  00000+0 0  9995
2 33055   0.0596   4.4390 0003632 264.9013 259.0563  1.00272804 31207
TURKSAT 3A              
1 33056U 08030B   16361.17111414  .00000154  00000-0  00000+0 0  9994
2 33056   0.0532 166.6296 0003300  95.7850 296.2792  1.00270044 31385
INTELSAT 25 (IS-25)     
1 33153U 08034A   16356.83513333 -.00000226  00000-0  00000-0 0  9991
2 33153   0.0210   9.3580 0002682 239.9787 110.6346  1.00270615 31016
BADR-6                  
1 33154U 08034B   16360.87495204  .00000152  00000-0  00000+0 0  9993
2 33154   0.0574  32.8013 0002782 290.0733 112.8854  1.00271271 31064
ECHOSTAR 11             
1 33207U 08035A   16361.04167092 -.00000049  00000-0  00000+0 0  9990
2 33207   0.0188 359.1314 0003138 295.7950  65.0440  1.00272492 30966
SUPERBIRD-C2            
1 33274U 08038A   16360.90011142 -.00000243  00000-0  00000+0 0  9991
2 33274   0.0130 310.6858 0001008 319.7108 292.4274  1.00273280 30684
AMC-21                  
1 33275U 08038B   16361.38910966  .00000044  00000-0  00000+0 0  9995
2 33275   0.0179 345.5704 0002392 301.7274 183.1817  1.00271760 30777
INMARSAT 4-F3           
1 33278U 08039A   16361.51727914 -.00000127  00000-0  00000+0 0  9996
2 33278   3.0208 359.7370 0003237 279.5968 264.3442  1.00270902 30574
NIMIQ 4                 
1 33373U 08044A   16361.03119067 -.00000212  00000-0  00000+0 0  9994
2 33373   0.0347  54.9078 0002626 244.8721  84.4186  1.00266654 30141
GALAXY 19 (G-19)        
1 33376U 08045A   16361.00564664 -.00000131  00000-0  00000+0 0  9992
2 33376   0.0212   4.9434 0002949 274.4976  80.5256  1.00270305 30148
VENESAT-1               
1 33414U 08055A   16361.09588574 -.00000230  00000-0  00000+0 0  9991
2 33414   0.0233 131.5528 0002870 159.6686 120.3235  1.00270841 29851
ASTRA 1M                
1 33436U 08057A   16361.17396959  .00000127  00000-0  00000+0 0  9994
2 33436   0.0300  77.8760 0001481 131.7657 327.2437  1.00271019 29788
CIEL-2                  
1 33453U 08063A   16361.15176985  .00000066  00000-0  00000+0 0  9995
2 33453   0.0171 327.7141 0002832 307.0807 106.0642  1.00270969 29468
EUTELSAT HOT BIRD 13C   
1 33459U 08065A   16359.70367599  .00000092  00000-0  00000+0 0  9993
2 33459   0.0594  55.0784 0001907 213.5291  91.3725  1.00270037 29540
EUTELSAT 48D            
1 33460U 08065B   16360.87951157  .00000131  00000-0  00000+0 0  9998
2 33460   0.0443   9.4594 0002855 263.8722 186.1804  1.00271751 29418
FENGYUN 2E              
1 33463U 08066A   16360.91747358 -.00000197  00000-0  00000+0 0  9996
2 33463   1.8560  65.3296 0004555 218.2440 228.3538  1.00275391 29394
EXPRESS-AM44            
1 33595U 09007A   16361.00321979 -.00000081  00000-0  00000+0 0  9998
2 33595   0.0042 246.3208 0000529  44.9656 153.7874  1.00271555 28863
NSS-9                   
1 33749U 09008A   16361.15358325  .00000079  00000-0  00000+0 0  9997
2 33749   0.0214 337.4214 0001918 298.6998  57.3036  1.00271187 28864
EUTELSAT 33E            
1 33750U 09008B   16360.22493703  .00000162  00000-0  00000+0 0  9999
2 33750   0.0247  19.2432 0004829 230.4065 318.5917  1.00275153 28892
TELSTAR 11N             
1 34111U 09009A   16361.14145147 -.00000243  00000-0  00000+0 0  9991
2 34111   0.0171 343.5300 0002370 233.5053 251.4203  1.00272310 28724
EUTELSAT 10A            
1 34710U 09016A   16361.08922130  .00000076  00000-0  00000+0 0  9995
2 34710   0.0641  19.5748 0005593 258.9834 218.5739  1.00273413 28278
SES-7 (PROTOSTAR 2)     
1 34941U 09027A   16360.93773053 -.00000338  00000-0  00000+0 0  9996
2 34941   0.0314  57.4945 0002723 226.9094 256.2973  1.00271998 27922
MEASAT-3A               
1 35362U 09032A   16360.48347853 -.00000235  00000-0  00000+0 0  9991
2 35362   0.0520 195.9319 0002623  54.6186 109.4237  1.00273346 27548
GOES 14                 
1 35491U 09033A   16361.02607658 -.00000085  00000-0  00000+0 0  9991
2 35491   0.1087 268.7018 0008238 326.3135 124.9101  1.00273252 27465
SIRIUS FM-5             
1 35493U 09034A   16360.25994907 -.00000194  00000-0  00000+0 0  9995
2 35493   0.0044 359.9365 0000460  35.9606  65.7364  1.00272365 27278
TERRESTAR-1             
1 35496U 09035A   16359.99495416 -.00000049  00000-0  00000+0 0  9998
2 35496   3.0350 341.0630 0003227 297.0076  63.0510  1.00271881 27453
ASIASAT 5               
1 35696U 09042A   16361.50166176 -.00000299  00000-0  00000+0 0  9993
2 35696   0.0255 290.0711 0001337 352.1986  94.2355  1.00269655 26988
JCSAT-RA (JCSAT-12)     
1 35755U 09044A   16360.38263921 -.00000338  00000-0  00000+0 0  9996
2 35755   0.0498  46.0551 0000628 199.5245 114.4163  1.00272219 26967
OPTUS D3                
1 35756U 09044B   16360.43715689 -.00000140  00000-0  00000+0 0  9997
2 35756   0.0264 351.1115 0003468 301.8509 114.8050  1.00272556 26931
PALAPA D                
1 35812U 09046A   16359.42678854 -.00000353  00000-0  00000+0 0  9997
2 35812   0.0150  39.8172 0002078 267.9967  52.1690  1.00272627 26963
NIMIQ 5                 
1 35873U 09050A   16361.44715737 -.00000249  00000-0  00000+0 0  9990
2 35873   0.0313 287.1193 0002505 358.2427 258.2824  1.00271884 26661
AMAZONAS 2              
1 35942U 09054A   16360.49429043 -.00000276  00000-0  00000+0 0  9997
2 35942   0.0537 128.1980 0002000  85.4921 357.7058  1.00271792 26484
